{"type": "FeatureCollection", "features": [ {"type": "Feature", "properties": {"norad_id": 43648, "name": "BEIDOU-3 M15 (C34)", "group": "gnss", "lat": -44.43074331306529, "lon": 171.06626985924663, "alt_km": 21541.55680147201, "timestamp": "2025-12-21T05:44:51.830426+00:00", "meta": {"OBJECT_NAME": "BEIDOU-3 M15 (C34)", "OBJECT_ID": "2018-078B", "EPOCH": "2025-12-19T06:30:41.361984", "MEAN_MOTION": 1.86232317, "ECCENTRICITY": 0.0003969, "INCLINATION": 54.2518, "RA_OF_ASC_NODE": 306.2933, "ARG_OF_PERICENTER": 20.1104, "MEAN_ANOMALY": 339.8954, "EPHEMERIS_TYPE": 0, "CLASSIFICATION_TYPE": "U", "NORAD_CAT_ID": 43648, "ELEMENT_SET_NO": 999, "REV_AT_EPOCH": 4882, "BSTAR": 0, "MEAN_MOTION_DOT": -7.6e-07, "MEAN_MOTION_DDOT": 0}, "tle": {"line1": "1 43648U 18078B   25353.27131206 -.00000076  00000+0  00000+0 0  9991", "line2": "2 43648  54.2518 306.2933 0003969  20.1104 339.8954  1.86232317 48829"}}, "geometry": {"type": "Point", "coordinates": [171.06626985924663, -44.43074331306529]}}, {"type": "Feature", "properties": {"norad_id": 43683, "name": "BEIDOU-3 G1 (C59)", "group": "gnss", "lat": -1.4736411379550303, "lon": -43.738998758376695, "alt_km": 35793.75479794011, "timestamp": "2025-12-21T05:44:51.830440+00:00", "meta": {"OBJECT_NAME": "BEIDOU-3 G1 (C59)", "OBJECT_ID": "2018-085A", "EPOCH": "2025-12-20T23:47:41.112384", "MEAN_MOTION": 1.00268309, "ECCENTRICITY": 0.00015754, "INCLINATION": 2.6274, "RA_OF_ASC_NODE": 102.7261, "ARG_OF_PERICENTER": 46.0407, "MEAN_ANOMALY": 77.9856, "EPHEMERIS_TYPE": 0, "CLASSIFICATION_TYPE": "U", "NORAD_CAT_ID": 43683, "ELEMENT_SET_NO": 999, "REV_AT_EPOCH": 2627, "BSTAR": 0, "MEAN_MOTION_DOT": -2.57e-06, "MEAN_MOTION_DDOT": 0}, "tle": {"line1": "1 43683U 18085A   25354.99144806 -.00000257  00000+0  00000+0 0  9999", "line2": "2 43683   2.6274 102.7261 0001575  46.0407  77.9856  1.00268309 26273"}}, "geometry": {"type": "Point", "coordinates": [-43.738998758376695, -1.4736411379550303]}}, {"type": "Feature", "properties": {"norad_id": 43687, "name": "COSMOS 2529 (757)", "group": "gnss", "lat": -58.414257074626796, "lon": 146.98433849358332, "alt_km": 19121.501653341034, "timestamp": "2025-12-21T05:44:51.830452+00:00", "meta": {"OBJECT_NAME": "COSMOS 2529 (757)", "OBJECT_ID": "2018-086A", "EPOCH": "2025-12-18T12:23:46.661856", "MEAN_MOTION": 2.13102105, "ECCENTRICITY": 0.00070461, "INCLINATION": 64.2922, "RA_OF_ASC_NODE": 198.6932, "ARG_OF_PERICENTER": 253.6593, "MEAN_ANOMALY": 106.345, "EPHEMERIS_TYPE": 0, "CLASSIFICATION_TYPE": "U", "NORAD_CAT_ID": 43687, "ELEMENT_SET_NO": 999, "REV_AT_EPOCH": 5543, "BSTAR": 0, "MEAN_MOTION_DOT": 1.09e-06, "MEAN_MOTION_DDOT": 0}, "tle": {"line1": "1 43687U 18086A   25352.51651229  .00000109  00000+0  00000+0 0  9997", "line2": "2 43687  64.2922 198.6932 0007046 253.6593 106.3450  2.13102105 55434"}}, "geometry": {"type": "Point", "coordinates": [146.98433849358332, -58.414257074626796]}}, {"type": "Feature", "properties": {"norad_id": 43706, "name": "BEIDOU-3 M17 (C36)", "group": "gnss", "lat": 36.22570798252107, "lon": -23.634550542225263, "alt_km": 21540.770535046682, "timestamp": "2025-12-21T05:44:51.830467+00:00", "meta": {"OBJECT_NAME": "BEIDOU-3 M17 (C36)", "OBJECT_ID": "2018-093A", "EPOCH": "2025-12-20T12:04:20.840736", "MEAN_MOTION": 1.86228485, "ECCENTRICITY": 0.00060883, "INCLINATION": 54.1751, "RA_OF_ASC_NODE": 188.3582, "ARG_OF_PERICENTER": 307.8758, "MEAN_ANOMALY": 51.559, "EPHEMERIS_TYPE": 0, "CLASSIFICATION_TYPE": "U", "NORAD_CAT_ID": 43706, "ELEMENT_SET_NO": 999, "REV_AT_EPOCH": 4820, "BSTAR": 0, "MEAN_MOTION_DOT": 9.7e-07, "MEAN_MOTION_DDOT": 0}, "tle": {"line1": "1 43706U 18093A   25354.50301899  .00000097  00000+0  00000+0 0  9999", "line2": "2 43706  54.1751 188.3582 0006088 307.8758  51.5590  1.86228485 48203"}}, "geometry": {"type": "Point", "coordinates": [-23.634550542225263, 36.22570798252107]}}, {"type": "Feature", "properties": {"norad_id": 43707, "name": "BEIDOU-3 M18 (C37)", "group": "gnss", "lat": -35.63850905741748, "lon": 39.54465619834983, "alt_km": 21543.550785285017, "timestamp": "2025-12-21T05:44:51.830478+00:00", "meta": {"OBJECT_NAME": "BEIDOU-3 M18 (C37)", "OBJECT_ID": "2018-093B", "EPOCH": "2025-12-20T08:46:15.603168", "MEAN_MOTION": 1.86226697, "ECCENTRICITY": 0.0006223, "INCLINATION": 54.174, "RA_OF_ASC_NODE": 188.3547, "ARG_OF_PERICENTER": 354.092, "MEAN_ANOMALY": 5.9566, "EPHEMERIS_TYPE": 0, "CLASSIFICATION_TYPE": "U", "NORAD_CAT_ID": 43707, "ELEMENT_SET_NO": 999, "REV_AT_EPOCH": 4820, "BSTAR": 0, "MEAN_MOTION_DOT": 9.7e-07, "MEAN_MOTION_DDOT": 0}, "tle": {"line1": "1 43707U 18093B   25354.36545837  .00000097  00000+0  00000+0 0  9996", "line2": "2 43707  54.1740 188.3547 0006223 354.0920   5.9566  1.86226697 48208"}}, "geometry": {"type": "Point", "coordinates": [39.54465619834983, -35.63850905741748]}}, {"type": "Feature", "properties": {"norad_id": 43873, "name": "GPS BIII-1  (PRN 04)", "group": "gnss", "lat": 16.247052361220074, "lon": -92.3013755838568, "alt_km": 20099.375316624795, "timestamp": "2025-12-21T05:44:51.830489+00:00", "meta": {"OBJECT_NAME": "GPS BIII-1  (PRN 04)", "OBJECT_ID": "2018-109A", "EPOCH": "2025-12-20T14:49:36.231744", "MEAN_MOTION": 2.00553966, "ECCENTRICITY": 0.0037575, "INCLINATION": 55.571, "RA_OF_ASC_NODE": 99.2363, "ARG_OF_PERICENTER": 195.36, "MEAN_ANOMALY": 236.122, "EPHEMERIS_TYPE": 0, "CLASSIFICATION_TYPE": "U", "NORAD_CAT_ID": 43873, "ELEMENT_SET_NO": 999, "REV_AT_EPOCH": 5149, "BSTAR": 0, "MEAN_MOTION_DOT": -1.2e-07, "MEAN_MOTION_DDOT": 0}, "tle": {"line1": "1 43873U 18109A   25354.61778046 -.00000012  00000+0  00000+0 0  9994", "line2": "2 43873  55.5710  99.2363 0037575 195.3600 236.1220  2.00553966 51494"}}, "geometry": {"type": "Point", "coordinates": [-92.3013755838568, 16.247052361220074]}}, {"type": "Feature", "properties": {"norad_id": 44231, "name": "BEIDOU-2 G8 (C01)", "group": "gnss", "lat": -1.555323818582554, "lon": -39.29553918390419, "alt_km": 35751.45721667421, "timestamp": "2025-12-21T05:44:51.830502+00:00", "meta": {"OBJECT_NAME": "BEIDOU-2 G8 (C01)", "OBJECT_ID": "2019-027A", "EPOCH": "2025-12-19T12:14:23.449632", "MEAN_MOTION": 1.00276563, "ECCENTRICITY": 0.0008196, "INCLINATION": 1.6785, "RA_OF_ASC_NODE": 74.7229, "ARG_OF_PERICENTER": 258.5641, "MEAN_ANOMALY": 83.1013, "EPHEMERIS_TYPE": 0, "CLASSIFICATION_TYPE": "U", "NORAD_CAT_ID": 44231, "ELEMENT_SET_NO": 999, "REV_AT_EPOCH": 2427, "BSTAR": 0, "MEAN_MOTION_DOT": -2.24e-06, "MEAN_MOTION_DDOT": 0}, "tle": {"line1": "1 44231U 19027A   25353.50999363 -.00000224  00000+0  00000+0 0  9992", "line2": "2 44231   1.6785  74.7229 0008196 258.5641  83.1013  1.00276563 24270"}}, "geometry": {"type": "Point", "coordinates": [-39.29553918390419, -1.555323818582554]}}, {"type": "Feature", "properties": {"norad_id": 44299, "name": "COSMOS 2534 (758)", "group": "gnss", "lat": 53.71589840773915, "lon": -120.51421718632004, "alt_km": 19140.693641335416, "timestamp": "2025-12-21T05:44:51.830514+00:00", "meta": {"OBJECT_NAME": "COSMOS 2534 (758)", "OBJECT_ID": "2019-030A", "EPOCH": "2025-12-18T18:30:09.690336", "MEAN_MOTION": 2.13102412, "ECCENTRICITY": 0.0008748, "INCLINATION": 64.3658, "RA_OF_ASC_NODE": 198.6898, "ARG_OF_PERICENTER": 284.2192, "MEAN_ANOMALY": 45.4012, "EPHEMERIS_TYPE": 0, "CLASSIFICATION_TYPE": "U", "NORAD_CAT_ID": 44299, "ELEMENT_SET_NO": 999, "REV_AT_EPOCH": 5107, "BSTAR": 0, "MEAN_MOTION_DOT": 1.08e-06, "MEAN_MOTION_DDOT": 0}, "tle": {"line1": "1 44299U 19030A   25352.77094549  .00000108  00000+0  00000+0 0  9990", "line2": "2 44299  64.3658 198.6898 0008748 284.2192  45.4012  2.13102412 51071"}}, "geometry": {"type": "Point", "coordinates": [-120.51421718632004, 53.71589840773915]}}, {"type": "Feature", "properties": {"norad_id": 44337, "name": "BEIDOU-3 IGSO-2 (C39)", "group": "gnss", "lat": 35.53316762567596, "lon": -49.382665646871715, "alt_km": 35721.33349839113, "timestamp": "2025-12-21T05:44:51.830525+00:00", "meta": {"OBJECT_NAME": "BEIDOU-3 IGSO-2 (C39)", "OBJECT_ID": "2019-035A", "EPOCH": "2025-12-20T20:45:51.571008", "MEAN_MOTION": 1.00268938, "ECCENTRICITY": 0.00375986, "INCLINATION": 55.2283, "RA_OF_ASC_NODE": 160.43, "ARG_OF_PERICENTER": 202.2266, "MEAN_ANOMALY": 157.9019, "EPHEMERIS_TYPE": 0, "CLASSIFICATION_TYPE": "U", "NORAD_CAT_ID": 44337, "ELEMENT_SET_NO": 999, "REV_AT_EPOCH": 2388, "BSTAR": 0, "MEAN_MOTION_DOT": -6.9e-07, "MEAN_MOTION_DDOT": 0}, "tle": {"line1": "1 44337U 19035A   25354.86518022 -.00000069  00000+0  00000+0 0  9994", "line2": "2 44337  55.2283 160.4300 0037598 202.2266 157.9019  1.00268938 23884"}}, "geometry": {"type": "Point", "coordinates": [-49.382665646871715, 35.53316762567596]}}, {"type": "Feature", "properties": {"norad_id": 44506, "name": "GPS BIII-2  (PRN 18)", "group": "gnss", "lat": 44.03737677791712, "lon": 19.46159791552427, "alt_km": 20295.622451172825, "timestamp": "2025-12-21T05:44:51.830537+00:00", "meta": {"OBJECT_NAME": "GPS BIII-2  (PRN 18)", "OBJECT_ID": "2019-056A", "EPOCH": "2025-12-20T05:10:31.696032", "MEAN_MOTION": 2.00566646, "ECCENTRICITY": 0.00577304, "INCLINATION": 55.7188, "RA_OF_ASC_NODE": 338.2562, "ARG_OF_PERICENTER": 198.5398, "MEAN_ANOMALY": 199.8804, "EPHEMERIS_TYPE": 0, "CLASSIFICATION_TYPE": "U", "NORAD_CAT_ID": 44506, "ELEMENT_SET_NO": 999, "REV_AT_EPOCH": 4648, "BSTAR": 0, "MEAN_MOTION_DOT": -7.7e-07, "MEAN_MOTION_DDOT": 0}, "tle": {"line1": "1 44506U 19056A   25354.21564463 -.00000077  00000+0  00000+0 0  9993", "line2": "2 44506  55.7188 338.2562 0057730 198.5398 199.8804  2.00566646 46485"}}, "geometry": {"type": "Point", "coordinates": [19.46159791552427, 44.03737677791712]}}]}